{"type": "FeatureCollection", "features": [ {"type": "Feature", "properties": {"norad_id": 28649, "name": "IRS-P5 (CARTOSAT-1)", "group": "resource", "lat": -63.97057891260791, "lon": -176.2621036834228, "alt_km": 604.407082915428, "timestamp": "2025-12-19T08:58:48.993945+00:00", "meta": {"OBJECT_NAME": "IRS-P5 (CARTOSAT-1)", "OBJECT_ID": "2005-017A", "EPOCH": "2025-12-18T15:46:18.001056", "MEAN_MOTION": 14.9042411, "ECCENTRICITY": 8.721e-05, "INCLINATION": 97.5487, "RA_OF_ASC_NODE": 18.8081, "ARG_OF_PERICENTER": 47.8767, "MEAN_ANOMALY": 312.2525, "EPHEMERIS_TYPE": 0, "CLASSIFICATION_TYPE": "U", "NORAD_CAT_ID": 28649, "ELEMENT_SET_NO": 999, "REV_AT_EPOCH": 11692, "BSTAR": 0.00012153421, "MEAN_MOTION_DOT": 1.132e-05, "MEAN_MOTION_DDOT": 0}, "tle": {"line1": "1 28649U 05017A   25352.65715279  .00001132  00000+0  12153-3 0  9992", "line2": "2 28649  97.5487  18.8081 0000872  47.8767 312.2525 14.90424110116928"}}, "geometry": {"type": "Point", "coordinates": [-176.2621036834228, -63.97057891260791]}}, {"type": "Feature", "properties": {"norad_id": 28893, "name": "SINAH 1", "group": "resource", "lat": -31.92696013925723, "lon": 127.14288559485122, "alt_km": 695.957008180234, "timestamp": "2025-12-19T08:58:48.993955+00:00", "meta": {"OBJECT_NAME": "SINAH 1", "OBJECT_ID": "2005-043D", "EPOCH": "2025-12-18T21:38:43.252800", "MEAN_MOTION": 14.63968938, "ECCENTRICITY": 0.00155957, "INCLINATION": 98.2607, "RA_OF_ASC_NODE": 121.4757, "ARG_OF_PERICENTER": 118.9194, "MEAN_ANOMALY": 241.3575, "EPHEMERIS_TYPE": 0, "CLASSIFICATION_TYPE": "U", "NORAD_CAT_ID": 28893, "ELEMENT_SET_NO": 999, "REV_AT_EPOCH": 7414, "BSTAR": 7.47203e-05, "MEAN_MOTION_DOT": 3.43e-06, "MEAN_MOTION_DDOT": 0}, "tle": {"line1": "1 28893U 05043D   25352.90188950  .00000343  00000+0  74720-4 0  9992", "line2": "2 28893  98.2607 121.4757 0015595 118.9194 241.3575 14.63968938 74149"}}, "geometry": {"type": "Point", "coordinates": [127.14288559485122, -31.92696013925723]}}, {"type": "Feature", "properties": {"norad_id": 29079, "name": "EROS B", "group": "resource", "lat": -30.239267933540685, "lon": 114.58733571360112, "alt_km": 361.9235985415553, "timestamp": "2025-12-19T08:58:48.993966+00:00", "meta": {"OBJECT_NAME": "EROS B", "OBJECT_ID": "2006-014A", "EPOCH": "2025-12-18T22:24:13.969728", "MEAN_MOTION": 15.70195533, "ECCENTRICITY": 0.00033635, "INCLINATION": 97.3466, "RA_OF_ASC_NODE": 109.811, "ARG_OF_PERICENTER": 311.608, "MEAN_ANOMALY": 48.4893, "EPHEMERIS_TYPE": 0, "CLASSIFICATION_TYPE": "U", "NORAD_CAT_ID": 29079, "ELEMENT_SET_NO": 999, "REV_AT_EPOCH": 9177, "BSTAR": 0.0011911967, "MEAN_MOTION_DOT": 0.00146275, "MEAN_MOTION_DDOT": 0}, "tle": {"line1": "1 29079U 06014A   25352.93349502  .00146275  00000+0  11912-2 0  9990", "line2": "2 29079  97.3466 109.8110 0003363 311.6080  48.4893 15.70195533 91777"}}, "geometry": {"type": "Point", "coordinates": [114.58733571360112, -30.239267933540685]}}, {"type": "Feature", "properties": {"norad_id": 29228, "name": "RESURS-DK 1", "group": "resource", "lat": -24.95308489827396, "lon": 74.90082592204122, "alt_km": 533.6990100093572, "timestamp": "2025-12-19T08:58:48.993976+00:00", "meta": {"OBJECT_NAME": "RESURS-DK 1", "OBJECT_ID": "2006-021A", "EPOCH": "2025-12-18T15:38:05.875296", "MEAN_MOTION": 15.12193236, "ECCENTRICITY": 0.0006884, "INCLINATION": 69.9338, "RA_OF_ASC_NODE": 86.5605, "ARG_OF_PERICENTER": 254.5298, "MEAN_ANOMALY": 105.5108, "EPHEMERIS_TYPE": 0, "CLASSIFICATION_TYPE": "U", "NORAD_CAT_ID": 29228, "ELEMENT_SET_NO": 999, "REV_AT_EPOCH": 7527, "BSTAR": 0.00012834748, "MEAN_MOTION_DOT": 2.114e-05, "MEAN_MOTION_DDOT": 0}, "tle": {"line1": "1 29228U 06021A   25352.65145689  .00002114  00000+0  12835-3 0  9992", "line2": "2 29228  69.9338  86.5605 0006884 254.5298 105.5108 15.12193236 75278"}}, "geometry": {"type": "Point", "coordinates": [74.90082592204122, -24.95308489827396]}}, {"type": "Feature", "properties": {"norad_id": 29268, "name": "ARIRANG-2 (KOMPSAT-2)", "group": "resource", "lat": -64.57685439951204, "lon": -15.294883531018394, "alt_km": 678.8284568195986, "timestamp": "2025-12-19T08:58:48.993986+00:00", "meta": {"OBJECT_NAME": "ARIRANG-2 (KOMPSAT-2)", "OBJECT_ID": "2006-031A", "EPOCH": "2025-12-19T00:21:07.111296", "MEAN_MOTION": 14.64500276, "ECCENTRICITY": 0.00132409, "INCLINATION": 97.8255, "RA_OF_ASC_NODE": 181.1812, "ARG_OF_PERICENTER": 287.6964, "MEAN_ANOMALY": 223.8026, "EPHEMERIS_TYPE": 0, "CLASSIFICATION_TYPE": "U", "NORAD_CAT_ID": 29268, "ELEMENT_SET_NO": 999, "REV_AT_EPOCH": 3510, "BSTAR": 0.00010940633, "MEAN_MOTION_DOT": 5.35e-06, "MEAN_MOTION_DDOT": 0}, "tle": {"line1": "1 29268U 06031A   25353.01466564  .00000535  00000+0  10941-3 0  9997", "line2": "2 29268  97.8255 181.1812 0013240 287.6964 223.8026 14.64500276 35106"}}, "geometry": {"type": "Point", "coordinates": [-15.294883531018394, -64.57685439951204]}}, {"type": "Feature", "properties": {"norad_id": 29709, "name": "LAPAN-TUBSAT", "group": "resource", "lat": -34.213291769111045, "lon": -10.75797929376278, "alt_km": 617.4706234632404, "timestamp": "2025-12-19T08:58:48.993997+00:00", "meta": {"OBJECT_NAME": "LAPAN-TUBSAT", "OBJECT_ID": "2007-001A", "EPOCH": "2025-12-18T23:26:13.838784", "MEAN_MOTION": 14.85678119, "ECCENTRICITY": 0.00134727, "INCLINATION": 98.1252, "RA_OF_ASC_NODE": 343.2617, "ARG_OF_PERICENTER": 55.5093, "MEAN_ANOMALY": 304.7391, "EPHEMERIS_TYPE": 0, "CLASSIFICATION_TYPE": "U", "NORAD_CAT_ID": 29709, "ELEMENT_SET_NO": 999, "REV_AT_EPOCH": 2439, "BSTAR": 1.4726136e-05, "MEAN_MOTION_DOT": 7e-07, "MEAN_MOTION_DDOT": 0}, "tle": {"line1": "1 29709U 07001A   25352.97654906  .00000070  00000+0  14726-4 0  9998", "line2": "2 29709  98.1252 343.2617 0013472  55.5093 304.7391 14.85678119 24391"}}, "geometry": {"type": "Point", "coordinates": [-10.75797929376278, -34.213291769111045]}}, {"type": "Feature", "properties": {"norad_id": 31113, "name": "HAIYANG-1B", "group": "resource", "lat": -13.951908424495393, "lon": -20.535144645685566, "alt_km": 784.6791780491358, "timestamp": "2025-12-19T08:58:48.994007+00:00", "meta": {"OBJECT_NAME": "HAIYANG-1B", "OBJECT_ID": "2007-010A", "EPOCH": "2025-12-18T22:58:37.050528", "MEAN_MOTION": 14.3096715, "ECCENTRICITY": 0.00139689, "INCLINATION": 98.3319, "RA_OF_ASC_NODE": 336.9788, "ARG_OF_PERICENTER": 20.3942, "MEAN_ANOMALY": 339.7797, "EPHEMERIS_TYPE": 0, "CLASSIFICATION_TYPE": "U", "NORAD_CAT_ID": 31113, "ELEMENT_SET_NO": 999, "REV_AT_EPOCH": 97485, "BSTAR": 4.9048462e-05, "MEAN_MOTION_DOT": 8.7e-07, "MEAN_MOTION_DDOT": 0}, "tle": {"line1": "1 31113U 07010A   25352.95737327  .00000087  00000+0  49048-4 0  9990", "line2": "2 31113  98.3319 336.9788 0013968  20.3942 339.7797 14.30967150974859"}}, "geometry": {"type": "Point", "coordinates": [-20.535144645685566, -13.951908424495393]}}, {"type": "Feature", "properties": {"norad_id": 31598, "name": "COSMO-SKYMED 1", "group": "resource", "lat": 16.883414908715395, "lon": 1.2268348536858102, "alt_km": 580.2157098889857, "timestamp": "2025-12-19T08:58:48.994018+00:00", "meta": {"OBJECT_NAME": "COSMO-SKYMED 1", "OBJECT_ID": "2007-023A", "EPOCH": "2025-12-18T22:37:19.084800", "MEAN_MOTION": 14.9581266, "ECCENTRICITY": 0.00015784, "INCLINATION": 97.8835, "RA_OF_ASC_NODE": 178.3823, "ARG_OF_PERICENTER": 86.3856, "MEAN_ANOMALY": 273.7545, "EPHEMERIS_TYPE": 0, "CLASSIFICATION_TYPE": "U", "NORAD_CAT_ID": 31598, "ELEMENT_SET_NO": 999, "REV_AT_EPOCH": 283, "BSTAR": 0.00031630932, "MEAN_MOTION_DOT": 3.472e-05, "MEAN_MOTION_DDOT": 0}, "tle": {"line1": "1 31598U 07023A   25352.94258200  .00003472  00000+0  31631-3 0  9997", "line2": "2 31598  97.8835 178.3823 0001578  86.3856 273.7545 14.95812660  2835"}}, "geometry": {"type": "Point", "coordinates": [1.2268348536858102, 16.883414908715395]}}, {"type": "Feature", "properties": {"norad_id": 31698, "name": "TERRASAR-X", "group": "resource", "lat": 15.263821729400421, "lon": -3.3868874905038453, "alt_km": 508.92713007877137, "timestamp": "2025-12-19T08:58:48.994028+00:00", "meta": {"OBJECT_NAME": "TERRASAR-X", "OBJECT_ID": "2007-026A", "EPOCH": "2025-12-18T12:21:42.553440", "MEAN_MOTION": 15.19151199, "ECCENTRICITY": 0.00018406, "INCLINATION": 97.4454, "RA_OF_ASC_NODE": 357.8116, "ARG_OF_PERICENTER": 91.5233, "MEAN_ANOMALY": 268.6213, "EPHEMERIS_TYPE": 0, "CLASSIFICATION_TYPE": "U", "NORAD_CAT_ID": 31698, "ELEMENT_SET_NO": 999, "REV_AT_EPOCH": 2579, "BSTAR": 3.8823467e-05, "MEAN_MOTION_DOT": 7.48e-06, "MEAN_MOTION_DDOT": 0}, "tle": {"line1": "1 31698U 07026A   25352.51507585  .00000748  00000+0  38823-4 0  9991", "line2": "2 31698  97.4454 357.8116 0001840  91.5233 268.6213 15.19151199 25792"}}, "geometry": {"type": "Point", "coordinates": [-3.3868874905038453, 15.263821729400421]}}, {"type": "Feature", "properties": {"norad_id": 32060, "name": "WORLDVIEW-1 (WV-1)", "group": "resource", "lat": 29.35760437334061, "lon": -65.05468559012986, "alt_km": 489.53148444959515, "timestamp": "2025-12-19T08:58:48.994038+00:00", "meta": {"OBJECT_NAME": "WORLDVIEW-1 (WV-1)", "OBJECT_ID": "2007-041A", "EPOCH": "2025-12-18T21:17:54.513600", "MEAN_MOTION": 15.24787661, "ECCENTRICITY": 9.41e-05, "INCLINATION": 97.3841, "RA_OF_ASC_NODE": 110.2821, "ARG_OF_PERICENTER": 117.2019, "MEAN_ANOMALY": 242.9315, "EPHEMERIS_TYPE": 0, "CLASSIFICATION_TYPE": "U", "NORAD_CAT_ID": 32060, "ELEMENT_SET_NO": 999, "REV_AT_EPOCH": 1541, "BSTAR": 0.00028990182, "MEAN_MOTION_DOT": 7.118e-05, "MEAN_MOTION_DDOT": 0}, "tle": {"line1": "1 32060U 07041A   25352.88743650  .00007118  00000+0  28990-3 0  9998", "line2": "2 32060  97.3841 110.2821 0000941 117.2019 242.9315 15.24787661 15419"}}, "geometry": {"type": "Point", "coordinates": [-65.05468559012986, 29.35760437334061]}}]}